{
  "type": "FeatureCollection",
  "features": [
    {
      "type": "Feature",
      "properties": {
        "norad_id": 66718,
        "name": "FLOCK 4H-15",
        "group": "last-30-days",
        "lat": 16.334456167047147,
        "lon": 65.63863163757121,
        "alt_km": 515.8103933526436,
        "timestamp": "2025-12-22T05:49:02.185426+00:00",
        "meta_object_name": "FLOCK 4H-15",
        "meta_object_id": "2025-276BE",
        "meta_epoch": "2025-12-21T18:39:50.308704",
        "meta_mean_motion": 15.17087446,
        "meta_eccentricity": 0.0003109,
        "meta_inclination": 97.4426,
        "meta_ra_of_asc_node": 67.3779,
        "meta_arg_of_pericenter": 275.9703,
        "meta_mean_anomaly": 84.1176,
        "meta_ephemeris_type": 0,
        "meta_classification_type": "U",
        "meta_norad_cat_id": 66718,
        "meta_element_set_no": 999,
        "meta_rev_at_epoch": 349,
        "meta_bstar": 0.00038009,
        "meta_mean_motion_dot": 7.466e-05,
        "meta_mean_motion_ddot": 0,
        "tle_line1": "1 66718U 25276BE  25355.77766561  .00007466  00000+0  38009-3 0  9990",
        "tle_line2": "2 66718  97.4426  67.3779 0003109 275.9703  84.1176 15.17087446  3493"
      },
      "geometry": {
        "type": "Point",
        "coordinates": [
          65.63863163757121,
          16.334456167047147
        ]
      }
    },
    {
      "type": "Feature",
      "properties": {
        "norad_id": 66719,
        "name": "FLOCK 4H-16",
        "group": "last-30-days",
        "lat": 22.625211833909958,
        "lon": 64.7182790537006,
        "alt_km": 520.9274321418752,
        "timestamp": "2025-12-22T05:49:02.185460+00:00",
        "meta_object_name": "FLOCK 4H-16",
        "meta_object_id": "2025-276BF",
        "meta_epoch": "2025-12-21T18:37:48.501120",
        "meta_mean_motion": 15.16472247,
        "meta_eccentricity": 0.0005346,
        "meta_inclination": 97.4441,
        "meta_ra_of_asc_node": 67.3848,
        "meta_arg_of_pericenter": 202.2948,
        "meta_mean_anomaly": 157.8054,
        "meta_ephemeris_type": 0,
        "meta_classification_type": "U",
        "meta_norad_cat_id": 66719,
        "meta_element_set_no": 999,
        "meta_rev_at_epoch": 349,
        "meta_bstar": -0.018951,
        "meta_mean_motion_dot": -0.0035164,
        "meta_mean_motion_ddot": 0,
        "tle_line1": "1 66719U 25276BF  25355.77625580 -.00351640  00000+0 -18951-1 0  9996",
        "tle_line2": "2 66719  97.4441  67.3848 0005346 202.2948 157.8054 15.16472247  3496"
      },
      "geometry": {
        "type": "Point",
        "coordinates": [
          64.7182790537006,
          22.625211833909958
        ]
      }
    },
    {
      "type": "Feature",
      "properties": {
        "norad_id": 66720,
        "name": "FLOCK 4H-17",
        "group": "last-30-days",
        "lat": 81.5822917213626,
        "lon": -50.04491491457453,
        "alt_km": 504.6236803354741,
        "timestamp": "2025-12-22T05:49:02.185474+00:00",
        "meta_object_name": "FLOCK 4H-17",
        "meta_object_id": "2025-276BG",
        "meta_epoch": "2025-12-21T18:19:51.644352",
        "meta_mean_motion": 15.18043918,
        "meta_eccentricity": 0.000259,
        "meta_inclination": 97.4445,
        "meta_ra_of_asc_node": 67.4042,
        "meta_arg_of_pericenter": 196.2123,
        "meta_mean_anomaly": 163.9028,
        "meta_ephemeris_type": 0,
        "meta_classification_type": "U",
        "meta_norad_cat_id": 66720,
        "meta_element_set_no": 999,
        "meta_rev_at_epoch": 349,
        "meta_bstar": 0.00036775,
        "meta_mean_motion_dot": 7.422e-05,
        "meta_mean_motion_ddot": 0,
        "tle_line1": "1 66720U 25276BG  25355.76379218  .00007422  00000+0  36775-3 0  9991",
        "tle_line2": "2 66720  97.4445  67.4042 0002590 196.2123 163.9028 15.18043918  3494"
      },
      "geometry": {
        "type": "Point",
        "coordinates": [
          -50.04491491457453,
          81.5822917213626
        ]
      }
    },
    {
      "type": "Feature",
      "properties": {
        "norad_id": 66721,
        "name": "FLOCK 4H-18",
        "group": "last-30-days",
        "lat": 19.188503298621114,
        "lon": 65.21554330896043,
        "alt_km": 514.8558136582542,
        "timestamp": "2025-12-22T05:49:02.185484+00:00",
        "meta_object_name": "FLOCK 4H-18",
        "meta_object_id": "2025-276BH",
        "meta_epoch": "2025-12-21T17:04:07.138272",
        "meta_mean_motion": 15.17123789,
        "meta_eccentricity": 0.0002487,
        "meta_inclination": 97.4389,
        "meta_ra_of_asc_node": 67.3003,
        "meta_arg_of_pericenter": 289.4365,
        "meta_mean_anomaly": 70.66,
        "meta_ephemeris_type": 0,
        "meta_classification_type": "U",
        "meta_norad_cat_id": 66721,
        "meta_element_set_no": 999,
        "meta_rev_at_epoch": 348,
        "meta_bstar": 0.00032795,
        "meta_mean_motion_dot": 6.438e-05,
        "meta_mean_motion_ddot": 0,
        "tle_line1": "1 66721U 25276BH  25355.71119373  .00006438  00000+0  32795-3 0  9995",
        "tle_line2": "2 66721  97.4389  67.3003 0002487 289.4365  70.6600 15.17123789  3489"
      },
      "geometry": {
        "type": "Point",
        "coordinates": [
          65.21554330896043,
          19.188503298621114
        ]
      }
    },
    {
      "type": "Feature",
      "properties": {
        "norad_id": 66722,
        "name": "FLOCK 4H-19",
        "group": "last-30-days",
        "lat": 69.57375239293853,
        "lon": -91.59769967264253,
        "alt_km": 503.60226962925753,
        "timestamp": "2025-12-22T05:49:02.185493+00:00",
        "meta_object_name": "FLOCK 4H-19",
        "meta_object_id": "2025-276BJ",
        "meta_epoch": "2025-12-21T11:56:19.887360",
        "meta_mean_motion": 15.18212936,
        "meta_eccentricity": 0.0001685,
        "meta_inclination": 97.4397,
        "meta_ra_of_asc_node": 67.1288,
        "meta_arg_of_pericenter": 154.845,
        "meta_mean_anomaly": 205.2867,
        "meta_ephemeris_type": 0,
        "meta_classification_type": "U",
        "meta_norad_cat_id": 66722,
        "meta_element_set_no": 999,
        "meta_rev_at_epoch": 274,
        "meta_bstar": 0.00072096,
        "meta_mean_motion_dot": 0.000147,
        "meta_mean_motion_ddot": 0,
        "tle_line1": "1 66722U 25276BJ  25355.49745240  .00014700  00000+0  72096-3 0  9998",
        "tle_line2": "2 66722  97.4397  67.1288 0001685 154.8450 205.2867 15.18212936  2744"
      },
      "geometry": {
        "type": "Point",
        "coordinates": [
          -91.59769967264253,
          69.57375239293853
        ]
      }
    },
    {
      "type": "Feature",
      "properties": {
        "norad_id": 66723,
        "name": "FLOCK 4H-20",
        "group": "last-30-days",
        "lat": 66.55801438799656,
        "lon": -94.57769970846365,
        "alt_km": 503.6610882909299,
        "timestamp": "2025-12-22T05:49:02.185504+00:00",
        "meta_object_name": "FLOCK 4H-20",
        "meta_object_id": "2025-276BK",
        "meta_epoch": "2025-12-21T16:40:14.151936",
        "meta_mean_motion": 15.18279163,
        "meta_eccentricity": 0.0002703,
        "meta_inclination": 97.4427,
        "meta_ra_of_asc_node": 67.3366,
        "meta_arg_of_pericenter": 175.74,
        "meta_mean_anomaly": 184.3857,
        "meta_ephemeris_type": 0,
        "meta_classification_type": "U",
        "meta_norad_cat_id": 66723,
        "meta_element_set_no": 999,
        "meta_rev_at_epoch": 273,
        "meta_bstar": 0.0004537,
        "meta_mean_motion_dot": 9.237e-05,
        "meta_mean_motion_ddot": 0,
        "tle_line1": "1 66723U 25276BK  25355.69460824  .00009237  00000+0  45370-3 0  9997",
        "tle_line2": "2 66723  97.4427  67.3366 0002703 175.7400 184.3857 15.18279163  2737"
      },
      "geometry": {
        "type": "Point",
        "coordinates": [
          -94.57769970846365,
          66.55801438799656
        ]
      }
    },
    {
      "type": "Feature",
      "properties": {
        "norad_id": 66724,
        "name": "FLOCK 4H-21",
        "group": "last-30-days",
        "lat": 63.851599808402156,
        "lon": -96.70045152685663,
        "alt_km": 503.7718088916099,
        "timestamp": "2025-12-22T05:49:02.185535+00:00",
        "meta_object_name": "FLOCK 4H-21",
        "meta_object_id": "2025-276BL",
        "meta_epoch": "2025-12-21T15:04:37.202304",
        "meta_mean_motion": 15.18339978,
        "meta_eccentricity": 0.0002229,
        "meta_inclination": 97.4399,
        "meta_ra_of_asc_node": 67.2587,
        "meta_arg_of_pericenter": 173.7271,
        "meta_mean_anomaly": 186.3991,
        "meta_ephemeris_type": 0,
        "meta_classification_type": "U",
        "meta_norad_cat_id": 66724,
        "meta_element_set_no": 999,
        "meta_rev_at_epoch": 272,
        "meta_bstar": 0.00049683,
        "meta_mean_motion_dot": 0.0001014,
        "meta_mean_motion_ddot": 0,
        "tle_line1": "1 66724U 25276BL  25355.62820836  .00010140  00000+0  49683-3 0  9990",
        "tle_line2": "2 66724  97.4399  67.2587 0002229 173.7271 186.3991 15.18339978  2728"
      },
      "geometry": {
        "type": "Point",
        "coordinates": [
          -96.70045152685663,
          63.851599808402156
        ]
      }
    }
  ]
}